$$SOE
2459580.500000000, A.D. 2022-Jan-01 00:00:00.0000, 6.667319626420951E+09, 1.988049925328876E+09, 1.705444317785194E+08,
2459587.500000000, A.D. 2022-Jan-08 00:00:00.0000, 6.666640927868896E+09, 1.990513275128566E+09, 1.706914006325551E+08,
2459594.500000000, A.D. 2022-Jan-15 00:00:00.0000, 6.665961187382640E+09, 1.992976353200442E+09, 1.708383463832352E+08,
2459601.500000000, A.D. 2022-Jan-22 00:00:00.0000, 6.665280408997754E+09, 1.995439157700084E+09, 1.709852686336740E+08,
2459608.500000000, A.D. 2022-Jan-29 00:00:00.0000, 6.664598597328964E+09, 1.997901689259501E+09, 1.711321670941205E+08,
2459615.500000000, A.D. 2022-Feb-05 00:00:00.0000, 6.663915755363070E+09, 2.000363950315462E+09, 1.712790417297232E+08,
2459622.500000000, A.D. 2022-Feb-12 00:00:00.0000, 6.663231884425197E+09, 2.002825943369583E+09, 1.714258926232489E+08,
2459629.500000000, A.D. 2022-Feb-19 00:00:00.0000, 6.662546984993580E+09, 2.005287670549160E+09, 1.715727198677583E+08,
2459636.500000000, A.D. 2022-Feb-26 00:00:00.0000, 6.661861057051532E+09, 2.007749133745770E+09, 1.717195235502483E+08,
2459643.500000000, A.D. 2022-Mar-05 00:00:00.0000, 6.661174100135859E+09, 2.010210334714746E+09, 1.718663037609982E+08,
2459650.500000000, A.D. 2022-Mar-12 00:00:00.0000, 6.660486113303543E+09, 2.012671275069906E+09, 1.720130606026043E+08,
2459657.500000000, A.D. 2022-Mar-19 00:00:00.0000, 6.659797095087746E+09, 2.015131956201724E+09, 1.721597941941819E+08,
2459664.500000000, A.D. 2022-Mar-26 00:00:00.0000, 6.659107043465566E+09, 2.017592379113169E+09, 1.723065046679049E+08,
2459671.500000000, A.D. 2022-Apr-02 00:00:00.0000, 6.658415955905301E+09, 2.020052544117623E+09, 1.724531921468292E+08,
2459678.500000000, A.D. 2022-Apr-09 00:00:00.0000, 6.657723829765321E+09, 2.022512450403907E+09, 1.725998566792274E+08,
2459685.500000000, A.D. 2022-Apr-16 00:00:00.0000, 6.657030663401640E+09, 2.024972096122736E+09, 1.727464981499321E+08,
2459692.500000000, A.D. 2022-Apr-23 00:00:00.0000, 6.656336456715357E+09, 2.027431480079044E+09, 1.728931163735600E+08,
2459699.500000000, A.D. 2022-Apr-30 00:00:00.0000, 6.655641209269767E+09, 2.029890602785082E+09, 1.730397113575723E+08,
2459706.500000000, A.D. 2022-May-07 00:00:00.0000, 6.654944919039932E+09, 2.032349464900826E+09, 1.731862832929118E+08,
2459713.500000000, A.D. 2022-May-14 00:00:00.0000, 6.654247583184018E+09, 2.034808066100002E+09, 1.733328323930080E+08,
2459720.500000000, A.D. 2022-May-21 00:00:00.0000, 6.653549198805395E+09, 2.037266405120502E+09, 1.734793588294574E+08,
2459727.500000000, A.D. 2022-May-28 00:00:00.0000, 6.652849763226661E+09, 2.039724480040503E+09, 1.736258627299527E+08,
2459734.500000000, A.D. 2022-Jun-04 00:00:00.0000, 6.652149274052703E+09, 2.042182288467555E+09, 1.737723441875064E+08,
2459741.500000000, A.D. 2022-Jun-11 00:00:00.0000, 6.651447729167543E+09, 2.044639827642989E+09, 1.739188032679214E+08,
2459748.500000000, A.D. 2022-Jun-18 00:00:00.0000, 6.650745126703659E+09, 2.047097094475098E+09, 1.740652400130980E+08,
2459755.500000000, A.D. 2022-Jun-25 00:00:00.0000, 6.650041465013261E+09, 2.049554085468179E+09, 1.742116544348552E+08,
2459762.500000000, A.D. 2022-Jul-02 00:00:00.0000, 6.649336742775615E+09, 2.052010796481927E+09, 1.743580464816941E+08,
2459769.500000000, A.D. 2022-Jul-09 00:00:00.0000, 6.648630959630708E+09, 2.054467222498398E+09, 1.745044159573007E+08,
2459776.500000000, A.D. 2022-Jul-16 00:00:00.0000, 6.647924117284113E+09, 2.056923358479496E+09, 1.746507624844872E+08,
2459783.500000000, A.D. 2022-Jul-23 00:00:00.0000, 6.647216218884665E+09, 2.059379201392813E+09, 1.747970857227588E+08,
2459790.500000000, A.D. 2022-Jul-30 00:00:00.0000, 6.646507266759036E+09, 2.061834750051929E+09, 1.749433855579177E+08,
2459797.500000000, A.D. 2022-Aug-06 00:00:00.0000, 6.645797262101973E+09, 2.064290003419321E+09, 1.750896619868048E+08,
2459804.500000000, A.D. 2022-Aug-13 00:00:00.0000, 6.645086205799010E+09, 2.066744960126340E+09, 1.752359149980226E+08,
2459811.500000000, A.D. 2022-Aug-20 00:00:00.0000, 6.644374098812333E+09, 2.069199618706840E+09, 1.753821445516945E+08,
2459818.500000000, A.D. 2022-Aug-27 00:00:00.0000, 6.643660942197865E+09, 2.071653977817921E+09, 1.755283505928735E+08,
2459825.500000000, A.D. 2022-Sep-03 00:00:00.0000, 6.642946737001603E+09, 2.074108036337212E+09, 1.756745330669914E+08,
2459832.500000000, A.D. 2022-Sep-10 00:00:00.0000, 6.642231484125199E+09, 2.076561793360637E+09, 1.758206919311851E+08,
2459839.500000000, A.D. 2022-Sep-17 00:00:00.0000, 6.641515184190288E+09, 2.079015248098907E+09, 1.759668271586981E+08,
2459846.500000000, A.D. 2022-Sep-24 00:00:00.0000, 6.640797837461913E+09, 2.081468399621866E+09, 1.761129387266371E+08,
2459853.500000000, A.D. 2022-Oct-01 00:00:00.0000, 6.640079444071110E+09, 2.083921246428401E+09, 1.762590265631319E+08,
2459860.500000000, A.D. 2022-Oct-08 00:00:00.0000, 6.639360004943899E+09, 2.086373786363983E+09, 1.764050904590251E+08,
2459867.500000000, A.D. 2022-Oct-15 00:00:00.0000, 6.638639522504869E+09, 2.088826018085033E+09, 1.765511301273220E+08,
2459874.500000000, A.D. 2022-Oct-22 00:00:00.0000, 6.637917998973754E+09, 2.091277942386197E+09, 1.766971454726335E+08,
2459881.500000000, A.D. 2022-Oct-29 00:00:00.0000, 6.637195434752833E+09, 2.093729560797072E+09, 1.768431366292711E+08,
2459888.500000000, A.D. 2022-Nov-05 00:00:00.0000, 6.636471829004461E+09, 2.096180874189521E+09, 1.769891037991711E+08,
2459895.500000000, A.D. 2022-Nov-12 00:00:00.0000, 6.635747180453906E+09, 2.098631882662782E+09, 1.771350471731856E+08,
2459902.500000000, A.D. 2022-Nov-19 00:00:00.0000, 6.635021487698110E+09, 2.101082585752282E+09, 1.772809669235654E+08,
2459909.500000000, A.D. 2022-Nov-26 00:00:00.0000, 6.634294749282612E+09, 2.103532982564819E+09, 1.774268632109590E+08,
2459916.500000000, A.D. 2022-Dec-03 00:00:00.0000, 6.633566963712645E+09, 2.105983071828571E+09, 1.775727361896589E+08,
2459923.500000000, A.D. 2022-Dec-10 00:00:00.0000, 6.632838129443943E+09, 2.108432851876641E+09, 1.777185860084038E+08,
2459930.500000000, A.D. 2022-Dec-17 00:00:00.0000, 6.632108244877972E+09, 2.110882320539133E+09, 1.778644128024033E+08,
2459937.500000000, A.D. 2022-Dec-24 00:00:00.0000, 6.631377308470981E+09, 2.113331474877930E+09, 1.780102166612036E+08,
2459944.500000000, A.D. 2022-Dec-31 00:00:00.0000, 6.630645319314493E+09, 2.115780310871684E+09, 1.781559975484095E+08,
2459951.500000000, A.D. 2023-Jan-07 00:00:00.0000, 6.629912278309978E+09, 2.118228824013415E+09, 1.783017552407140E+08,
2459958.500000000, A.D. 2023-Jan-14 00:00:00.0000, 6.629178187970655E+09, 2.120677011317514E+09, 1.784474895073236E+08,
2459965.500000000, A.D. 2023-Jan-21 00:00:00.0000, 6.628443050205700E+09, 2.123124871563529E+09, 1.785932003297222E+08,
2459972.500000000, A.D. 2023-Jan-28 00:00:00.0000, 6.627706865754857E+09, 2.125572403581239E+09, 1.787388878094232E+08,
2459979.500000000, A.D. 2023-Feb-04 00:00:00.0000, 6.626969635064890E+09, 2.128019605604748E+09, 1.788845520303566E+08,
2459986.500000000, A.D. 2023-Feb-11 00:00:00.0000, 6.626231358812685E+09, 2.130466475502085E+09, 1.790301930248282E+08,
2459993.500000000, A.D. 2023-Feb-18 00:00:00.0000, 6.625492038011796E+09, 2.132913011057247E+09, 1.791758107817012E+08,
2460000.500000000, A.D. 2023-Feb-25 00:00:00.0000, 6.624751673965347E+09, 2.135359210143095E+09, 1.793214052596118E+08,
2460007.500000000, A.D. 2023-Mar-04 00:00:00.0000, 6.624010268167653E+09, 2.137805070804115E+09, 1.794669763975409E+08,
2460014.500000000, A.D. 2023-Mar-11 00:00:00.0000, 6.623267822183358E+09, 2.140250591249795E+09, 1.796125241203426E+08,
2460021.500000000, A.D. 2023-Mar-18 00:00:00.0000, 6.622524337551355E+09, 2.142695769709398E+09, 1.797580483310758E+08,
2460028.500000000, A.D. 2023-Mar-25 00:00:00.0000, 6.621779815917000E+09, 2.145140604101143E+09, 1.799035488678536E+08,
2460035.500000000, A.D. 2023-Apr-01 00:00:00.0000, 6.621034259817307E+09, 2.147585091909444E+09, 1.800490254186372E+08,
2460042.500000000, A.D. 2023-Apr-08 00:00:00.0000, 6.620287673503931E+09, 2.150029231495366E+09, 1.801944775507319E+08,
2460049.500000000, A.D. 2023-Apr-15 00:00:00.0000, 6.619540061466998E+09, 2.152473023734313E+09, 1.803399049791236E+08,
2460056.500000000, A.D. 2023-Apr-22 00:00:00.0000, 6.618791426469098E+09, 2.154916470929097E+09, 1.804853076584079E+08,
2460063.500000000, A.D. 2023-Apr-29 00:00:00.0000, 6.618041769824523E+09, 2.157359575251352E+09, 1.806306856316034E+08,
2460070.500000000, A.D. 2023-May-06 00:00:00.0000, 6.617291092163595E+09, 2.159802338492546E+09, 1.807760389428205E+08,
2460077.500000000, A.D. 2023-May-13 00:00:00.0000, 6.616539393705310E+09, 2.162244762231120E+09, 1.809213676302660E+08,
2460084.500000000, A.D. 2023-May-20 00:00:00.0000, 6.615786674272507E+09, 2.164686847924793E+09, 1.810666717377871E+08,
2460091.500000000, A.D. 2023-May-27 00:00:00.0000, 6.615032933243023E+09, 2.167128596898651E+09, 1.812119513245811E+08,
2460098.500000000, A.D. 2023-Jun-03 00:00:00.0000, 6.614278169494480E+09, 2.169570010255100E+09, 1.813572064696343E+08,
2460105.500000000, A.D. 2023-Jun-10 00:00:00.0000, 6.613522381366462E+09, 2.172011088691959E+09, 1.815024372673066E+08,
2460112.500000000, A.D. 2023-Jun-17 00:00:00.0000, 6.612765566729105E+09, 2.174451832168677E+09, 1.816476438007066E+08,
2460119.500000000, A.D. 2023-Jun-24 00:00:00.0000, 6.612007723478160E+09, 2.176892239476319E+09, 1.817928260677955E+08,
2460126.500000000, A.D. 2023-Jul-01 00:00:00.0000, 6.611248850709569E+09, 2.179332308539498E+09, 1.819379839044651E+08,
2460133.500000000, A.D. 2023-Jul-08 00:00:00.0000, 6.610488948899662E+09, 2.181772038272342E+09, 1.820831171251352E+08,
2460140.500000000, A.D. 2023-Jul-15 00:00:00.0000, 6.609728017814154E+09, 2.184211429158775E+09, 1.822282257666068E+08,
2460147.500000000, A.D. 2023-Jul-22 00:00:00.0000, 6.608966055667364E+09, 2.186650481522751E+09, 1.823733100275481E+08,
2460154.500000000, A.D. 2023-Jul-29 00:00:00.0000, 6.608203060018597E+09, 2.189089194633450E+09, 1.825183701159145E+08,
$$EOE